{
  "type": "FeatureCollection",
  "features": [
    {
      "type": "Feature",
      "properties": {
        "norad_id": 36204,
        "name": "FENGYUN 1C DEB",
        "group": "fengyun-1c-debris",
        "lat": -1.1356671480784537,
        "lon": 77.50989350366741,
        "alt_km": 794.0261760823996,
        "timestamp": "2025-12-06T16:45:43.010200+00:00",
        "meta_object_name": "FENGYUN 1C DEB",
        "meta_object_id": "1999-025DUD",
        "meta_epoch": "2025-12-04T12:52:24.876192",
        "meta_mean_motion": 14.34488584,
        "meta_eccentricity": 0.0020013,
        "meta_inclination": 99.2915,
        "meta_ra_of_asc_node": 75.0011,
        "meta_arg_of_pericenter": 185.0266,
        "meta_mean_anomaly": 175.0719,
        "meta_ephemeris_type": 0,
        "meta_classification_type": "U",
        "meta_norad_cat_id": 36204,
        "meta_element_set_no": 999,
        "meta_rev_at_epoch": 94310,
        "meta_bstar": 0.0030031,
        "meta_mean_motion_dot": 8.445e-05,
        "meta_mean_motion_ddot": 0,
        "tle_line1": "1 36204U 99025DUD 25338.53639903  .00008445  00000+0  30031-2 0  9998",
        "tle_line2": "2 36204  99.2915  75.0011 0020013 185.0266 175.0719 14.34488584943106"
      },
      "geometry": {
        "type": "Point",
        "coordinates": [
          77.50989350366741,
          -1.1356671480784537
        ]
      }
    },
    {
      "type": "Feature",
      "properties": {
        "norad_id": 36206,
        "name": "FENGYUN 1C DEB",
        "group": "fengyun-1c-debris",
        "lat": -62.644930782431096,
        "lon": 20.850593684248697,
        "alt_km": 831.2779611483375,
        "timestamp": "2025-12-06T16:45:43.010210+00:00",
        "meta_object_name": "FENGYUN 1C DEB",
        "meta_object_id": "1999-025DUF",
        "meta_epoch": "2025-11-26T07:02:56.668416",
        "meta_mean_motion": 14.21517518,
        "meta_eccentricity": 0.00312218,
        "meta_inclination": 98.4807,
        "meta_ra_of_asc_node": 354.0922,
        "meta_arg_of_pericenter": 66.8272,
        "meta_mean_anomaly": 293.619,
        "meta_ephemeris_type": 0,
        "meta_classification_type": "U",
        "meta_norad_cat_id": 36206,
        "meta_element_set_no": 999,
        "meta_rev_at_epoch": 64187,
        "meta_bstar": 0.00073137291,
        "meta_mean_motion_dot": 1.568e-05,
        "meta_mean_motion_ddot": 0,
        "tle_line1": "1 36206U 99025DUF 25330.29371144  .00001568  00000+0  73137-3 0  9999",
        "tle_line2": "2 36206  98.4807 354.0922 0031221  66.8272 293.6190 14.21517518641871"
      },
      "geometry": {
        "type": "Point",
        "coordinates": [
          20.850593684248697,
          -62.644930782431096
        ]
      }
    },
    {
      "type": "Feature",
      "properties": {
        "norad_id": 36211,
        "name": "FENGYUN 1C DEB",
        "group": "fengyun-1c-debris",
        "lat": -16.199016723942314,
        "lon": -23.479159981190662,
        "alt_km": 828.6302353594583,
        "timestamp": "2025-12-06T16:45:43.010220+00:00",
        "meta_object_name": "FENGYUN 1C DEB",
        "meta_object_id": "1999-025DUL",
        "meta_epoch": "2025-12-05T17:15:46.002816",
        "meta_mean_motion": 14.25954721,
        "meta_eccentricity": 0.02662967,
        "meta_inclination": 98.503,
        "meta_ra_of_asc_node": 333.0786,
        "meta_arg_of_pericenter": 249.5072,
        "meta_mean_anomaly": 107.7342,
        "meta_ephemeris_type": 0,
        "meta_classification_type": "U",
        "meta_norad_cat_id": 36211,
        "meta_element_set_no": 999,
        "meta_rev_at_epoch": 94269,
        "meta_bstar": 0.0010127648,
        "meta_mean_motion_dot": 3.457e-05,
        "meta_mean_motion_ddot": 0,
        "tle_line1": "1 36211U 99025DUL 25339.71928244  .00003457  00000+0  10128-2 0  9999",
        "tle_line2": "2 36211  98.5030 333.0786 0266296 249.5072 107.7342 14.25954721942694"
      },
      "geometry": {
        "type": "Point",
        "coordinates": [
          -23.479159981190662,
          -16.199016723942314
        ]
      }
    },
    {
      "type": "Feature",
      "properties": {
        "norad_id": 36216,
        "name": "FENGYUN 1C DEB",
        "group": "fengyun-1c-debris",
        "lat": 32.62281218847151,
        "lon": -173.353265273107,
        "alt_km": 839.1894194217211,
        "timestamp": "2025-12-06T16:45:43.010229+00:00",
        "meta_object_name": "FENGYUN 1C DEB",
        "meta_object_id": "1999-025DUR",
        "meta_epoch": "2025-12-03T18:41:03.384096",
        "meta_mean_motion": 14.18834784,
        "meta_eccentricity": 0.00454101,
        "meta_inclination": 98.6096,
        "meta_ra_of_asc_node": 358.2465,
        "meta_arg_of_pericenter": 43.693,
        "meta_mean_anomaly": 316.7826,
        "meta_ephemeris_type": 0,
        "meta_classification_type": "U",
        "meta_norad_cat_id": 36216,
        "meta_element_set_no": 999,
        "meta_rev_at_epoch": 64245,
        "meta_bstar": 0.00043256372,
        "meta_mean_motion_dot": 8.67e-06,
        "meta_mean_motion_ddot": 0,
        "tle_line1": "1 36216U 99025DUR 25337.77851139  .00000867  00000+0  43256-3 0  9997",
        "tle_line2": "2 36216  98.6096 358.2465 0045410  43.6930 316.7826 14.18834784642452"
      },
      "geometry": {
        "type": "Point",
        "coordinates": [
          -173.353265273107,
          32.62281218847151
        ]
      }
    },
    {
      "type": "Feature",
      "properties": {
        "norad_id": 36218,
        "name": "FENGYUN 1C DEB",
        "group": "fengyun-1c-debris",
        "lat": -1.6294832799437167,
        "lon": -178.7213312406154,
        "alt_km": 624.295462914969,
        "timestamp": "2025-12-06T16:45:43.010239+00:00",
        "meta_object_name": "FENGYUN 1C DEB",
        "meta_object_id": "1999-025DUT",
        "meta_epoch": "2025-12-06T06:58:24.453984",
        "meta_mean_motion": 14.70848905,
        "meta_eccentricity": 0.00732646,
        "meta_inclination": 99.0766,
        "meta_ra_of_asc_node": 180.5642,
        "meta_arg_of_pericenter": 315.6416,
        "meta_mean_anomaly": 43.8932,
        "meta_ephemeris_type": 0,
        "meta_classification_type": "U",
        "meta_norad_cat_id": 36218,
        "meta_element_set_no": 999,
        "meta_rev_at_epoch": 59048,
        "meta_bstar": 0.0020017134,
        "meta_mean_motion_dot": 0.00012715,
        "meta_mean_motion_ddot": 0,
        "tle_line1": "1 36218U 99025DUT 25340.29056081  .00012715  00000+0  20017-2 0  9997",
        "tle_line2": "2 36218  99.0766 180.5642 0073264 315.6416  43.8932 14.70848905590484"
      },
      "geometry": {
        "type": "Point",
        "coordinates": [
          -178.7213312406154,
          -1.6294832799437167
        ]
      }
    },
    {
      "type": "Feature",
      "properties": {
        "norad_id": 36224,
        "name": "FENGYUN 1C DEB",
        "group": "fengyun-1c-debris",
        "lat": 24.23014888842276,
        "lon": -147.85843538045418,
        "alt_km": 917.992411936224,
        "timestamp": "2025-12-06T16:45:43.010250+00:00",
        "meta_object_name": "FENGYUN 1C DEB",
        "meta_object_id": "1999-025DUZ",
        "meta_epoch": "2025-12-05T21:20:10.902912",
        "meta_mean_motion": 14.12757556,
        "meta_eccentricity": 0.01149324,
        "meta_inclination": 98.7811,
        "meta_ra_of_asc_node": 27.359,
        "meta_arg_of_pericenter": 11.4898,
        "meta_mean_anomaly": 348.8857,
        "meta_ephemeris_type": 0,
        "meta_classification_type": "U",
        "meta_norad_cat_id": 36224,
        "meta_element_set_no": 999,
        "meta_rev_at_epoch": 64335,
        "meta_bstar": 0.00019098451,
        "meta_mean_motion_dot": 3.34e-06,
        "meta_mean_motion_ddot": 0,
        "tle_line1": "1 36224U 99025DUZ 25339.88901508  .00000334  00000+0  19098-3 0  9992",
        "tle_line2": "2 36224  98.7811  27.3590 0114932  11.4898 348.8857 14.12757556643357"
      },
      "geometry": {
        "type": "Point",
        "coordinates": [
          -147.85843538045418,
          24.23014888842276
        ]
      }
    },
    {
      "type": "Feature",
      "properties": {
        "norad_id": 36225,
        "name": "FENGYUN 1C DEB",
        "group": "fengyun-1c-debris",
        "lat": 55.72084784606638,
        "lon": 88.07433310438778,
        "alt_km": 553.4587602987049,
        "timestamp": "2025-12-06T16:45:43.010260+00:00",
        "meta_object_name": "FENGYUN 1C DEB",
        "meta_object_id": "1999-025DVA",
        "meta_epoch": "2025-12-05T07:00:38.521728",
        "meta_mean_motion": 15.05269466,
        "meta_eccentricity": 0.00445041,
        "meta_inclination": 98.8187,
        "meta_ra_of_asc_node": 99.6345,
        "meta_arg_of_pericenter": 314.8469,
        "meta_mean_anomaly": 44.9141,
        "meta_ephemeris_type": 0,
        "meta_classification_type": "U",
        "meta_norad_cat_id": 36225,
        "meta_element_set_no": 999,
        "meta_rev_at_epoch": 66660,
        "meta_bstar": 0.0045250921,
        "meta_mean_motion_dot": 0.00066606,
        "meta_mean_motion_ddot": 0,
        "tle_line1": "1 36225U 99025DVA 25339.29211252  .00066606  00000+0  45251-2 0  9991",
        "tle_line2": "2 36225  98.8187  99.6345 0044504 314.8469  44.9141 15.05269466666600"
      },
      "geometry": {
        "type": "Point",
        "coordinates": [
          88.07433310438778,
          55.72084784606638
        ]
      }
    }
  ]
}